CSS (TIANHE)            
1 48274U 21035A   24268.51772881  .00053889  00000+0  58777-3 0  9996
2 48274  41.4669 197.4504 0005058  12.8283 347.2684 15.62496532194639
